CCSDS_OMM_VERS = 2.0
CREATION_DATE  = 
ORIGINATOR     = 

OBJECT_NAME    = UNKNOWN
OBJECT_ID      = 
CENTER_NAME    = EARTH
REF_FRAME      = TEME
TIME_SYSTEM    = UTC
MEAN_ELEMENT_THEORY = SGP/SGP4

EPOCH          = 2025-12-25T21:37:02.278848
MEAN_MOTION    = 0.99112284
ECCENTRICITY   = .0123617
INCLINATION    = 6.1512
RA_OF_ASC_NODE = 290.5041
ARG_OF_PERICENTER = 251.9910
MEAN_ANOMALY   = 284.4053

EPHEMERIS_TYPE = 0
CLASSIFICATION_TYPE = U
NORAD_CAT_ID   = 83903
ELEMENT_SET_NO = 999
REV_AT_EPOCH   = 4379
BSTAR          = 0
MEAN_MOTION_DOT = .121E-5
MEAN_MOTION_DDOT = 0

CCSDS_OMM_VERS = 2.0
CREATION_DATE  = 
ORIGINATOR     = 

OBJECT_NAME    = UNKNOWN
OBJECT_ID      = 
CENTER_NAME    = EARTH
REF_FRAME      = TEME
TIME_SYSTEM    = UTC
MEAN_ELEMENT_THEORY = SGP/SGP4

EPOCH          = 2025-12-10T20:24:23.315040
MEAN_MOTION    = 1.02662910
ECCENTRICITY   = .0232633
INCLINATION    = 5.7866
RA_OF_ASC_NODE = 297.5267
ARG_OF_PERICENTER = 273.3758
MEAN_ANOMALY   = 209.9168

EPHEMERIS_TYPE = 0
CLASSIFICATION_TYPE = U
NORAD_CAT_ID   = 83934
ELEMENT_SET_NO = 999
REV_AT_EPOCH   = 4526
BSTAR          = 0
MEAN_MOTION_DOT = -.109E-5
MEAN_MOTION_DDOT = 0

CCSDS_OMM_VERS = 2.0
CREATION_DATE  = 
ORIGINATOR     = 

OBJECT_NAME    = UNKNOWN
OBJECT_ID      = 
CENTER_NAME    = EARTH
REF_FRAME      = TEME
TIME_SYSTEM    = UTC
MEAN_ELEMENT_THEORY = SGP/SGP4

EPOCH          = 2025-12-24T20:02:24.775008
MEAN_MOTION    = 5.32184289
ECCENTRICITY   = .5067708
INCLINATION    = 18.2744
RA_OF_ASC_NODE = 205.4471
ARG_OF_PERICENTER = 169.9140
MEAN_ANOMALY   = 206.3418

EPHEMERIS_TYPE = 0
CLASSIFICATION_TYPE = U
NORAD_CAT_ID   = 83970
ELEMENT_SET_NO = 999
REV_AT_EPOCH   = 19685
BSTAR          = .79226E-2
MEAN_MOTION_DOT = .7146E-4
MEAN_MOTION_DDOT = 0

CCSDS_OMM_VERS = 2.0
CREATION_DATE  = 
ORIGINATOR     = 

OBJECT_NAME    = UNKNOWN
OBJECT_ID      = 
CENTER_NAME    = EARTH
REF_FRAME      = TEME
TIME_SYSTEM    = UTC
MEAN_ELEMENT_THEORY = SGP/SGP4

EPOCH          = 2025-12-21T21:29:19.728672
MEAN_MOTION    = 2.16233550
ECCENTRICITY   = .6151284
INCLINATION    = 22.4417
RA_OF_ASC_NODE = 175.6731
ARG_OF_PERICENTER = 63.9416
MEAN_ANOMALY   = 345.8815

EPHEMERIS_TYPE = 0
CLASSIFICATION_TYPE = U
NORAD_CAT_ID   = 84006
ELEMENT_SET_NO = 999
REV_AT_EPOCH   = 8442
BSTAR          = 0
MEAN_MOTION_DOT = .27E-6
MEAN_MOTION_DDOT = 0

CCSDS_OMM_VERS = 2.0
CREATION_DATE  = 
ORIGINATOR     = 

OBJECT_NAME    = UNKNOWN
OBJECT_ID      = 
CENTER_NAME    = EARTH
REF_FRAME      = TEME
TIME_SYSTEM    = UTC
MEAN_ELEMENT_THEORY = SGP/SGP4

EPOCH          = 2025-12-25T20:06:28.193184
MEAN_MOTION    = 7.65786292
ECCENTRICITY   = .3736811
INCLINATION    = 65.1544
RA_OF_ASC_NODE = 246.7830
ARG_OF_PERICENTER = 17.2518
MEAN_ANOMALY   = 352.6815

EPHEMERIS_TYPE = 0
CLASSIFICATION_TYPE = U
NORAD_CAT_ID   = 84188
ELEMENT_SET_NO = 999
REV_AT_EPOCH   = 4226
BSTAR          = .22991E+0
MEAN_MOTION_DOT = .50145E-2
MEAN_MOTION_DDOT = 0

CCSDS_OMM_VERS = 2.0
CREATION_DATE  = 
ORIGINATOR     = 

OBJECT_NAME    = UNKNOWN
OBJECT_ID      = 
CENTER_NAME    = EARTH
REF_FRAME      = TEME
TIME_SYSTEM    = UTC
MEAN_ELEMENT_THEORY = SGP/SGP4

EPOCH          = 2025-12-25T18:01:53.649696
MEAN_MOTION    = 3.17494780
ECCENTRICITY   = .6559035
INCLINATION    = 20.3120
RA_OF_ASC_NODE = 266.7060
ARG_OF_PERICENTER = 77.8874
MEAN_ANOMALY   = 343.9087

EPHEMERIS_TYPE = 0
CLASSIFICATION_TYPE = U
NORAD_CAT_ID   = 84232
ELEMENT_SET_NO = 999
REV_AT_EPOCH   = 10510
BSTAR          = .11055E-1
MEAN_MOTION_DOT = .13328E-3
MEAN_MOTION_DDOT = 0

CCSDS_OMM_VERS = 2.0
CREATION_DATE  = 
ORIGINATOR     = 

OBJECT_NAME    = UNKNOWN
OBJECT_ID      = 
CENTER_NAME    = EARTH
REF_FRAME      = TEME
TIME_SYSTEM    = UTC
MEAN_ELEMENT_THEORY = SGP/SGP4

EPOCH          = 2025-12-27T10:55:13.039392
MEAN_MOTION    = 2.62542961
ECCENTRICITY   = .6894476
INCLINATION    = 9.4326
RA_OF_ASC_NODE = 328.5336
ARG_OF_PERICENTER = 107.3134
MEAN_ANOMALY   = 334.0629

EPHEMERIS_TYPE = 0
CLASSIFICATION_TYPE = U
NORAD_CAT_ID   = 84236
ELEMENT_SET_NO = 999
REV_AT_EPOCH   = 11436
BSTAR          = .32331E-2
MEAN_MOTION_DOT = .387E-5
MEAN_MOTION_DDOT = 0

CCSDS_OMM_VERS = 2.0
CREATION_DATE  = 
ORIGINATOR     = 

OBJECT_NAME    = UNKNOWN
OBJECT_ID      = 
CENTER_NAME    = EARTH
REF_FRAME      = TEME
TIME_SYSTEM    = UTC
MEAN_ELEMENT_THEORY = SGP/SGP4

EPOCH          = 2025-12-19T10:19:54.388704
MEAN_MOTION    = 6.21548976
ECCENTRICITY   = .4565693
INCLINATION    = 23.8359
RA_OF_ASC_NODE = 151.0737
ARG_OF_PERICENTER = 256.1347
MEAN_ANOMALY   = 50.5562

EPHEMERIS_TYPE = 0
CLASSIFICATION_TYPE = U
NORAD_CAT_ID   = 84292
ELEMENT_SET_NO = 999
REV_AT_EPOCH   = 22848
BSTAR          = .13865E-2
MEAN_MOTION_DOT = .2611E-4
MEAN_MOTION_DDOT = 0

CCSDS_OMM_VERS = 2.0
CREATION_DATE  = 
ORIGINATOR     = 

OBJECT_NAME    = UNKNOWN
OBJECT_ID      = 
CENTER_NAME    = EARTH
REF_FRAME      = TEME
TIME_SYSTEM    = UTC
MEAN_ELEMENT_THEORY = SGP/SGP4

EPOCH          = 2025-12-20T04:39:55.975968
MEAN_MOTION    = 12.67343451
ECCENTRICITY   = .0040274
INCLINATION    = 101.7170
RA_OF_ASC_NODE = 138.4341
ARG_OF_PERICENTER = 21.8008
MEAN_ANOMALY   = 156.5685

EPHEMERIS_TYPE = 0
CLASSIFICATION_TYPE = U
NORAD_CAT_ID   = 84406
ELEMENT_SET_NO = 999
REV_AT_EPOCH   = 5023
BSTAR          = .35098E-2
MEAN_MOTION_DOT = .628E-5
MEAN_MOTION_DDOT = 0

CCSDS_OMM_VERS = 2.0
CREATION_DATE  = 
ORIGINATOR     = 

OBJECT_NAME    = UNKNOWN
OBJECT_ID      = 
CENTER_NAME    = EARTH
REF_FRAME      = TEME
TIME_SYSTEM    = UTC
MEAN_ELEMENT_THEORY = SGP/SGP4

EPOCH          = 2025-12-26T01:23:51.073728
MEAN_MOTION    = 2.05768771
ECCENTRICITY   = .7202229
INCLINATION    = 19.4781
RA_OF_ASC_NODE = 318.5596
ARG_OF_PERICENTER = 68.9861
MEAN_ANOMALY   = 350.3793

EPHEMERIS_TYPE = 0
CLASSIFICATION_TYPE = U
NORAD_CAT_ID   = 84407
ELEMENT_SET_NO = 999
REV_AT_EPOCH   = 7614
BSTAR          = .19893E-1
MEAN_MOTION_DOT = .432E-5
MEAN_MOTION_DDOT = 0

CCSDS_OMM_VERS = 2.0
CREATION_DATE  = 
ORIGINATOR     = 

OBJECT_NAME    = UNKNOWN
OBJECT_ID      = 
CENTER_NAME    = EARTH
REF_FRAME      = TEME
TIME_SYSTEM    = UTC
MEAN_ELEMENT_THEORY = SGP/SGP4

EPOCH          = 2025-12-28T18:20:05.187552
MEAN_MOTION    = 2.19885453
ECCENTRICITY   = .7101509
INCLINATION    = 18.0986
RA_OF_ASC_NODE = 153.2515
ARG_OF_PERICENTER = 32.2046
MEAN_ANOMALY   = 355.9427

EPHEMERIS_TYPE = 0
CLASSIFICATION_TYPE = U
NORAD_CAT_ID   = 84575
ELEMENT_SET_NO = 999
REV_AT_EPOCH   = 6581
BSTAR          = -.2223E-2
MEAN_MOTION_DOT = .26E-6
MEAN_MOTION_DDOT = 0

CCSDS_OMM_VERS = 2.0
CREATION_DATE  = 
ORIGINATOR     = 

OBJECT_NAME    = UNKNOWN
OBJECT_ID      = 
CENTER_NAME    = EARTH
REF_FRAME      = TEME
TIME_SYSTEM    = UTC
MEAN_ELEMENT_THEORY = SGP/SGP4

EPOCH          = 2025-12-29T07:28:39.275616
MEAN_MOTION    = 2.99978809
ECCENTRICITY   = .6577228
INCLINATION    = 2.0391
RA_OF_ASC_NODE = 234.6497
ARG_OF_PERICENTER = 73.7154
MEAN_ANOMALY   = 219.7553

EPHEMERIS_TYPE = 0
CLASSIFICATION_TYPE = U
NORAD_CAT_ID   = 84932
ELEMENT_SET_NO = 999
REV_AT_EPOCH   = 13227
BSTAR          = .10862E-1
MEAN_MOTION_DOT = .144E-4
MEAN_MOTION_DDOT = 0

