UNKNOWN                 
1 83903U          25359.90072082  .00000121  00000+0  00000+0 0  9997
2 83903   6.1512 290.5041 0123617 251.9910 284.4053  0.99112284 43793
UNKNOWN                 
1 83934U          25344.85026985 -.00000109  00000+0  00000+0 0  9997
2 83934   5.7866 297.5267 0232633 273.3758 209.9168  1.02662910 45262
UNKNOWN                 
1 83970U          25358.83500897  .00007146  00000+0  79226-2 0  9995
2 83970  18.2744 205.4471 5067708 169.9140 206.3418  5.32184289196856
UNKNOWN                 
1 84006U          25355.89536723  .00000027  00000+0  00000+0 0  9998
2 84006  22.4417 175.6731 6151284  63.9416 345.8815  2.16233550 84425
UNKNOWN                 
1 84188U          25359.83782631  .00501450  00000+0  22991+0 0  9997
2 84188  65.1544 246.7830 3736811  17.2518 352.6815  7.65786292 42265
UNKNOWN                 
1 84232U          25359.75131539  .00013328  00000+0  11055-1 0  9996
2 84232  20.3120 266.7060 6559035  77.8874 343.9087  3.17494780105104
UNKNOWN                 
1 84236U          25361.45501203  .00000387  00000+0  32331-2 0  9991
2 84236   9.4326 328.5336 6894476 107.3134 334.0629  2.62542961114361
UNKNOWN                 
1 84292U          25353.43049061  .00002611  00000+0  13865-2 0  9994
2 84292  23.8359 151.0737 4565693 256.1347  50.5562  6.21548976228482
UNKNOWN                 
1 84406U          25354.19439787  .00000628  00000+0  35098-2 0  9991
2 84406 101.7170 138.4341 0040274  21.8008 156.5685 12.67343451 50233
UNKNOWN                 
1 84407U          25360.05823002  .00000432  00000+0  19893-1 0  9998
2 84407  19.4781 318.5596 7202229  68.9861 350.3793  2.05768771 76145
UNKNOWN                 
1 84575U          25362.76394893  .00000026  00000+0 -22230-2 0  9995
2 84575  18.0986 153.2515 7101509  32.2046 355.9427  2.19885453 65815
UNKNOWN                 
1 84932U          25363.31156569  .00001440  00000+0  10862-1 0  9997
2 84932   2.0391 234.6497 6577228  73.7154 219.7553  2.99978809132270
